{
    "links": {
        "self": "http://www.neowsapp.com/rest/v1/neo/3686080?api_key=iIulBulltgU6a56xZRHN4H3l9WmuAYTsLGpBGhQ2"
    },
    "id": "3686080",
    "neo_reference_id": "3686080",
    "name": "(2014 QM433)",
    "designation": "2014 QM433",
    "nasa_jpl_url": "http://ssd.jpl.nasa.gov/sbdb.cgi?sstr=3686080",
    "absolute_magnitude_h": 23.0,
    "estimated_diameter": {
        "kilometers": {
            "estimated_diameter_min": 0.0667659413,
            "estimated_diameter_max": 0.1492931834
        },
        "meters": {
            "estimated_diameter_min": 66.7659413495,
            "estimated_diameter_max": 149.2931834393
        },
        "miles": {
            "estimated_diameter_min": 0.0414864197,
            "estimated_diameter_max": 0.0927664547
        },
        "feet": {
            "estimated_diameter_min": 219.0483710172,
            "estimated_diameter_max": 489.807047955
        }
    },
    "is_potentially_hazardous_asteroid": false,
    "close_approach_data": [
        {
            "close_approach_date": "2014-09-27",
            "close_approach_date_full": "2014-Sep-27 06:51",
            "epoch_date_close_approach": 1411800660000,
            "relative_velocity": {
                "kilometers_per_second": "3.8008163971",
                "kilometers_per_hour": "13682.9390294855",
                "miles_per_hour": "8502.0461986267"
            },
            "miss_distance": {
                "astronomical": "0.24462448",
                "lunar": "95.15892272",
                "kilometers": "36595301.1578576",
                "miles": "22739265.70573088"
            },
            "orbiting_body": "Earth"
        }
    ],
    "orbital_data": {
        "orbit_id": "6",
        "orbit_determination_date": "2017-04-06 08:38:52",
        "first_observation_date": "2014-08-31",
        "last_observation_date": "2014-09-25",
        "data_arc_in_days": 25,
        "observations_used": 22,
        "orbit_uncertainty": "6",
        "minimum_orbit_intersection": ".240375",
        "jupiter_tisserand_invariant": "3.475",
        "epoch_osculation": "2459000.5",
        "eccentricity": ".450282775407922",
        "semi_major_axis": "2.258644443049572",
        "inclination": "5.527279827139791",
        "ascending_node_longitude": "185.653981809158",
        "orbital_period": "1239.853096597277",
        "perihelion_distance": "1.241615754573531",
        "perihelion_argument": "181.1398201286218",
        "aphelion_distance": "3.275673131525614",
        "perihelion_time": "2459413.991105281651",
        "mean_anomaly": "239.9399716708977",
        "mean_motion": ".290356979377641",
        "equinox": "J2000",
        "orbit_class": {
            "orbit_class_type": "AMO",
            "orbit_class_description": "Near-Earth asteroid orbits similar to that of 1221 Amor",
            "orbit_class_range": "1.017 AU < q (perihelion) < 1.3 AU"
        }
    },
    "is_sentry_object": false
}